{"type": "FeatureCollection", "features": [ {"type": "Feature", "properties": {"norad_id": 57401, "name": "TIANMU-1 09", "group": "weather", "lat": -57.00107541037641, "lon": -154.06503571003424, "alt_km": 492.88413414783463, "timestamp": "2025-12-14T03:55:52.436973+00:00", "meta": {"OBJECT_NAME": "TIANMU-1 09", "OBJECT_ID": "2023-101C", "EPOCH": "2025-12-13T06:27:51.126336", "MEAN_MOTION": 15.28099686, "ECCENTRICITY": 0.00067945, "INCLINATION": 97.2827, "RA_OF_ASC_NODE": 36.4185, "ARG_OF_PERICENTER": 82.6141, "MEAN_ANOMALY": 277.5871, "EPHEMERIS_TYPE": 0, "CLASSIFICATION_TYPE": "U", "NORAD_CAT_ID": 57401, "ELEMENT_SET_NO": 999, "REV_AT_EPOCH": 13323, "BSTAR": 0.00045061298, "MEAN_MOTION_DOT": 0.00012289, "MEAN_MOTION_DDOT": 0}, "tle": {"line1": "1 57401U 23101C   25347.26934174  .00012289  00000+0  45061-3 0  9991", "line2": "2 57401  97.2827  36.4185 0006794  82.6141 277.5871 15.28099686133232"}}, "geometry": {"type": "Point", "coordinates": [-154.06503571003424, -57.00107541037641]}}, {"type": "Feature", "properties": {"norad_id": 57402, "name": "TIANMU-1 10", "group": "weather", "lat": 48.843296947922255, "lon": 29.72170304959276, "alt_km": 472.02482352759216, "timestamp": "2025-12-14T03:55:52.436983+00:00", "meta": {"OBJECT_NAME": "TIANMU-1 10", "OBJECT_ID": "2023-101D", "EPOCH": "2025-12-13T07:17:07.487232", "MEAN_MOTION": 15.28090732, "ECCENTRICITY": 0.00084961, "INCLINATION": 97.2907, "RA_OF_ASC_NODE": 37.3023, "ARG_OF_PERICENTER": 81.7895, "MEAN_ANOMALY": 278.4308, "EPHEMERIS_TYPE": 0, "CLASSIFICATION_TYPE": "U", "NORAD_CAT_ID": 57402, "ELEMENT_SET_NO": 999, "REV_AT_EPOCH": 13323, "BSTAR": 0.00045683814, "MEAN_MOTION_DOT": 0.00012461, "MEAN_MOTION_DDOT": 0}, "tle": {"line1": "1 57402U 23101D   25347.30355888  .00012461  00000+0  45684-3 0  9999", "line2": "2 57402  97.2907  37.3023 0008496  81.7895 278.4308 15.28090732133238"}}, "geometry": {"type": "Point", "coordinates": [29.72170304959276, 48.843296947922255]}}, {"type": "Feature", "properties": {"norad_id": 57490, "name": "FENGYUN 3F", "group": "weather", "lat": 63.17108783091606, "lon": -105.92572389077274, "alt_km": 819.0424283357479, "timestamp": "2025-12-14T03:55:52.436994+00:00", "meta": {"OBJECT_NAME": "FENGYUN 3F", "OBJECT_ID": "2023-111A", "EPOCH": "2025-12-13T07:05:41.745120", "MEAN_MOTION": 14.19893882, "ECCENTRICITY": 6.832e-05, "INCLINATION": 98.7083, "RA_OF_ASC_NODE": 55.5801, "ARG_OF_PERICENTER": 103.3597, "MEAN_ANOMALY": 256.7656, "EPHEMERIS_TYPE": 0, "CLASSIFICATION_TYPE": "U", "NORAD_CAT_ID": 57490, "ELEMENT_SET_NO": 999, "REV_AT_EPOCH": 12248, "BSTAR": 9.1190232e-05, "MEAN_MOTION_DOT": 1.5e-06, "MEAN_MOTION_DDOT": 0}, "tle": {"line1": "1 57490U 23111A   25347.29562205  .00000150  00000+0  91190-4 0  9994", "line2": "2 57490  98.7083  55.5801 0000683 103.3597 256.7656 14.19893882122488"}}, "geometry": {"type": "Point", "coordinates": [-105.92572389077274, 63.17108783091606]}}, {"type": "Feature", "properties": {"norad_id": 58584, "name": "ARKTIKA-M 2", "group": "weather", "lat": 55.87054669606151, "lon": -53.445492349884795, "alt_km": 31338.75212571275, "timestamp": "2025-12-14T03:55:52.437005+00:00", "meta": {"OBJECT_NAME": "ARKTIKA-M 2", "OBJECT_ID": "2023-198A", "EPOCH": "2025-12-08T20:10:13.977120", "MEAN_MOTION": 2.0060476, "ECCENTRICITY": 0.68646991, "INCLINATION": 63.2247, "RA_OF_ASC_NODE": 175.3152, "ARG_OF_PERICENTER": 268.1185, "MEAN_ANOMALY": 18.8267, "EPHEMERIS_TYPE": 0, "CLASSIFICATION_TYPE": "U", "NORAD_CAT_ID": 58584, "ELEMENT_SET_NO": 999, "REV_AT_EPOCH": 1450, "BSTAR": 0, "MEAN_MOTION_DOT": 1.66e-06, "MEAN_MOTION_DDOT": 0}, "tle": {"line1": "1 58584U 23198A   25342.84043955  .00000166  00000+0  00000+0 0  9998", "line2": "2 58584  63.2247 175.3152 6864699 268.1185  18.8267  2.00604760 14506"}}, "geometry": {"type": "Point", "coordinates": [-53.445492349884795, 55.87054669606151]}}, {"type": "Feature", "properties": {"norad_id": 58645, "name": "TIANMU-1 11", "group": "weather", "lat": -30.56485310475715, "lon": -176.616440506648, "alt_km": 498.37458579120903, "timestamp": "2025-12-14T03:55:52.437021+00:00", "meta": {"OBJECT_NAME": "TIANMU-1 11", "OBJECT_ID": "2023-205A", "EPOCH": "2025-12-13T08:06:24.965280", "MEAN_MOTION": 15.24613238, "ECCENTRICITY": 0.00078728, "INCLINATION": 97.3612, "RA_OF_ASC_NODE": 6.9506, "ARG_OF_PERICENTER": 307.9795, "MEAN_ANOMALY": 52.0731, "EPHEMERIS_TYPE": 0, "CLASSIFICATION_TYPE": "U", "NORAD_CAT_ID": 58645, "ELEMENT_SET_NO": 999, "REV_AT_EPOCH": 10918, "BSTAR": 0.00042263546, "MEAN_MOTION_DOT": 0.00010368, "MEAN_MOTION_DDOT": 0}, "tle": {"line1": "1 58645U 23205A   25347.33778895  .00010368  00000+0  42264-3 0  9999", "line2": "2 58645  97.3612   6.9506 0007872 307.9795  52.0731 15.24613238109180"}}, "geometry": {"type": "Point", "coordinates": [-176.616440506648, -30.56485310475715]}}, {"type": "Feature", "properties": {"norad_id": 58646, "name": "TIANMU-1 12", "group": "weather", "lat": 61.53434298609537, "lon": -6.224841624989097, "alt_km": 489.2203326154886, "timestamp": "2025-12-14T03:55:52.437032+00:00", "meta": {"OBJECT_NAME": "TIANMU-1 12", "OBJECT_ID": "2023-205B", "EPOCH": "2025-12-13T07:10:46.066656", "MEAN_MOTION": 15.24494207, "ECCENTRICITY": 0.00058449, "INCLINATION": 97.3599, "RA_OF_ASC_NODE": 6.718, "ARG_OF_PERICENTER": 288.9295, "MEAN_ANOMALY": 71.1309, "EPHEMERIS_TYPE": 0, "CLASSIFICATION_TYPE": "U", "NORAD_CAT_ID": 58646, "ELEMENT_SET_NO": 999, "REV_AT_EPOCH": 10916, "BSTAR": 0.00039415124, "MEAN_MOTION_DOT": 9.626e-05, "MEAN_MOTION_DDOT": 0}, "tle": {"line1": "1 58646U 23205B   25347.29914429  .00009626  00000+0  39415-3 0  9999", "line2": "2 58646  97.3599   6.7180 0005844 288.9295  71.1309 15.24494207109165"}}, "geometry": {"type": "Point", "coordinates": [-6.224841624989097, 61.53434298609537]}}, {"type": "Feature", "properties": {"norad_id": 58647, "name": "TIANMU-1 13", "group": "weather", "lat": -57.92636625823336, "lon": 175.86078926095186, "alt_km": 495.44090635767316, "timestamp": "2025-12-14T03:55:52.437042+00:00", "meta": {"OBJECT_NAME": "TIANMU-1 13", "OBJECT_ID": "2023-205C", "EPOCH": "2025-12-13T07:59:03.187392", "MEAN_MOTION": 15.24539088, "ECCENTRICITY": 0.00060287, "INCLINATION": 97.3627, "RA_OF_ASC_NODE": 6.9521, "ARG_OF_PERICENTER": 264.4252, "MEAN_ANOMALY": 95.6298, "EPHEMERIS_TYPE": 0, "CLASSIFICATION_TYPE": "U", "NORAD_CAT_ID": 58647, "ELEMENT_SET_NO": 999, "REV_AT_EPOCH": 10916, "BSTAR": 0.00042799436, "MEAN_MOTION_DOT": 0.00010474, "MEAN_MOTION_DDOT": 0}, "tle": {"line1": "1 58647U 23205C   25347.33267578  .00010474  00000+0  42799-3 0  9993", "line2": "2 58647  97.3627   6.9521 0006028 264.4252  95.6298 15.24539088109161"}}, "geometry": {"type": "Point", "coordinates": [175.86078926095186, -57.92636625823336]}}, {"type": "Feature", "properties": {"norad_id": 58648, "name": "TIANMU-1 14", "group": "weather", "lat": -30.156515259118432, "lon": 11.420546196149374, "alt_km": 496.0393908878932, "timestamp": "2025-12-14T03:55:52.437052+00:00", "meta": {"OBJECT_NAME": "TIANMU-1 14", "OBJECT_ID": "2023-205D", "EPOCH": "2025-12-13T07:35:09.402720", "MEAN_MOTION": 15.2452213, "ECCENTRICITY": 0.00068296, "INCLINATION": 97.3559, "RA_OF_ASC_NODE": 6.2838, "ARG_OF_PERICENTER": 270.3014, "MEAN_ANOMALY": 89.7441, "EPHEMERIS_TYPE": 0, "CLASSIFICATION_TYPE": "U", "NORAD_CAT_ID": 58648, "ELEMENT_SET_NO": 999, "REV_AT_EPOCH": 10916, "BSTAR": 0.00040861279, "MEAN_MOTION_DOT": 9.992e-05, "MEAN_MOTION_DDOT": 0}, "tle": {"line1": "1 58648U 23205D   25347.31608105  .00009992  00000+0  40861-3 0  9998", "line2": "2 58648  97.3559   6.2838 0006829 270.3014  89.7441 15.24522130109165"}}, "geometry": {"type": "Point", "coordinates": [11.420546196149374, -30.156515259118432]}}, {"type": "Feature", "properties": {"norad_id": 58660, "name": "TIANMU-1 19", "group": "weather", "lat": -60.83732566121732, "lon": -94.34254200749474, "alt_km": 486.4857599062434, "timestamp": "2025-12-14T03:55:52.437062+00:00", "meta": {"OBJECT_NAME": "TIANMU-1 19", "OBJECT_ID": "2023-208A", "EPOCH": "2025-12-13T06:26:34.277856", "MEAN_MOTION": 15.27866633, "ECCENTRICITY": 0.0004124, "INCLINATION": 97.4383, "RA_OF_ASC_NODE": 98.3042, "ARG_OF_PERICENTER": 250.7762, "MEAN_ANOMALY": 109.3031, "EPHEMERIS_TYPE": 0, "CLASSIFICATION_TYPE": "U", "NORAD_CAT_ID": 58660, "ELEMENT_SET_NO": 999, "REV_AT_EPOCH": 10890, "BSTAR": 0.00054763374, "MEAN_MOTION_DOT": 0.00014841, "MEAN_MOTION_DDOT": 0}, "tle": {"line1": "1 58660U 23208A   25347.26845229  .00014841  00000+0  54763-3 0  9994", "line2": "2 58660  97.4383  98.3042 0004124 250.7762 109.3031 15.27866633108909"}}, "geometry": {"type": "Point", "coordinates": [-94.34254200749474, -60.83732566121732]}}, {"type": "Feature", "properties": {"norad_id": 58661, "name": "TIANMU-1 20", "group": "weather", "lat": -37.670673447510936, "lon": 105.43106117005166, "alt_km": 482.9611545870084, "timestamp": "2025-12-14T03:55:52.437072+00:00", "meta": {"OBJECT_NAME": "TIANMU-1 20", "OBJECT_ID": "2023-208B", "EPOCH": "2025-12-13T06:06:32.346720", "MEAN_MOTION": 15.29057012, "ECCENTRICITY": 0.00063184, "INCLINATION": 97.4321, "RA_OF_ASC_NODE": 98.7385, "ARG_OF_PERICENTER": 263.7138, "MEAN_ANOMALY": 96.3382, "EPHEMERIS_TYPE": 0, "CLASSIFICATION_TYPE": "U", "NORAD_CAT_ID": 58661, "ELEMENT_SET_NO": 999, "REV_AT_EPOCH": 10897, "BSTAR": 0.0005201806, "MEAN_MOTION_DOT": 0.0001462, "MEAN_MOTION_DDOT": 0}, "tle": {"line1": "1 58661U 23208B   25347.25454105  .00014620  00000+0  52018-3 0  9999", "line2": "2 58661  97.4321  98.7385 0006318 263.7138  96.3382 15.29057012108970"}}, "geometry": {"type": "Point", "coordinates": [105.43106117005166, -37.670673447510936]}}]}